KZ-11 R/B               
1 69628U 26138H   26193.90834216  .00780150  97501-5  75497-3 0  9998
2 69628  55.1520 167.7492 0377051 143.6026 219.1292 15.43010363  3894
CENTISPACE-1 GROUP 05 O*
1 69636U 26138J   26193.98111693 -.00000270  00000+0 -58941-4 0  9990
2 69636  55.1383 185.8680 0009505 340.3250  19.7356 14.15842481  3641
VICTUS HAZE PUMA        
1 69646U 26142A   26194.27140633  .00002093  00000+0  97284-4 0  9991
2 69646  97.4472  91.5972 0025029 273.0497  86.7874 15.20839796  3631
HOKUSHIN-1              
1 69648U 98067YH  26193.97333506  .00017654  00000+0  30626-3 0  9992
2 69648  51.6302 172.2596 0006128 322.5692  37.4870 15.50931223  3654
STARLINK-37656          
1 69649U 26143A   26194.08491228  .00038574  00000+0  70684-3 0  9990
2 69649  97.2854 237.9473 0001077 101.4008 258.7365 15.49213961  4556
STARLINK-37646          
1 69650U 26143B   26194.25003472 -.00046224  00000+0 -85191-3 0  9993
2 69650  97.2847 238.2905 0001777  78.7252 172.4372 15.49232337  4646
STARLINK-37749          
1 69651U 26143C   26194.25003472 -.00026534  00000+0 -48684-3 0  9992
2 69651  97.2848 238.2749 0000677 140.2368  72.6342 15.49249173  4649
STARLINK-37819          
1 69652U 26143D   26194.25003472 -.00028383  00000+0 -52195-3 0  9999
2 69652  97.2844 238.2480 0001191  73.0240  75.4410 15.49196158  4643
STARLINK-37729          
1 69653U 26143E   26194.10490932  .00316076  00000+0  14187-2 0  9990
2 69653  97.2835 238.3815 0001732 230.7304 129.3812 15.83313120  4587
STARLINK-37838          
1 69654U 26143F   26194.25003472 -.00030614  00000+0 -56313-3 0  9997
2 69654  97.2843 238.3176 0001448  56.8573 256.6131 15.49203584  4645
STARLINK-37884          
1 69655U 26143G   26194.10259228  .00025871  00000+0  47518-3 0  9998
2 69655  97.2860 238.0768 0001158  79.8230 280.3151 15.49226026  4565
STARLINK-37876          
1 69656U 26143H   26194.25003472 -.00045937  00000+0 -84720-3 0  9996
2 69656  97.2843 238.3158 0001377  84.4183 226.6364 15.49212215  4558
STARLINK-37784          
1 69657U 26143J   26194.25003472 -.00041073  00000+0 -75693-3 0  9993
2 69657  97.2843 238.2440 0001193  82.0224  61.4844 15.49209421  4551
STARLINK-37851          
1 69658U 26143K   26194.25003472 -.00041234  00000+0 -76000-3 0  9996
2 69658  97.2843 238.3102 0001105  87.4069 211.6575 15.49206510  4542
STARLINK-37229          
1 69659U 26143L   26194.25003472 -.00028900  00000+0 -53145-3 0  9997
2 69659  97.2847 238.2650 0001201  90.9716  99.4298 15.49200647  4593
STARLINK-37556          
1 69660U 26143M   26194.25003472 -.00045989  00000+0 -84817-3 0  9995
2 69660  97.2847 238.2911 0001165  84.6624 169.6702 15.49212614  4599
STARLINK-37867          
1 69661U 26143N   26194.25003472 -.00024437  00000+0 -44878-3 0  9994
2 69661  97.2848 238.3128 0001884  86.1741 211.4066 15.49204225  4551
STARLINK-37852          
1 69662U 26143P   26194.25003472 -.00035495  00000+0 -65342-3 0  9990
2 69662  97.2843 238.2345 0001236  93.9421  26.6445 15.49210446  4558
STARLINK-37554          
1 69663U 26143Q   26194.25003472 -.00044750  00000+0 -82524-3 0  9996
2 69663  97.2847 238.2867 0000762  73.4858 171.3644 15.49210043  4598
STARLINK-37830          
1 69664U 26143R   26194.25003472 -.00040753  00000+0 -75096-3 0  9992
2 69664  97.2845 238.2506 0001431  94.2164  66.3808 15.49210284  4549
STARLINK-37837          
1 69665U 26143S   26194.25003472 -.03126387  00000+0 -71825-1 0  9998
2 69665  97.2845 238.3108 0002068 107.2283 193.0435 15.46466832  4557
STARLINK-37943          
1 69666U 26143T   26194.25003472 -.00033648  00000+0 -61922-3 0  9992
2 69666  97.2847 238.2532 0001393  89.7629  73.7981 15.49209019  4553
STARLINK-37941          
1 69667U 26143U   26194.25003472 -.00046214  00000+0 -85245-3 0  9990
2 69667  97.2848 238.2817 0000978  68.8469 165.0927 15.49209441  4553
STARLINK-37930          
1 69668U 26143V   26194.25003472 -.00030916  00000+0 -56880-3 0  9996
2 69668  97.2848 238.2847 0001064  77.0266 159.9164 15.49200030  4540
STARLINK-37945          
1 69669U 26143W   26194.25003472 -.00045474  00000+0 -83861-3 0  9991
2 69669  97.2843 238.3138 0001325  79.7332 229.0893 15.49211679  4553
STARLINK-37948          
1 69670U 26143X   26194.04877066  .00046554  00000+0  85147-3 0  9995
2 69670  97.2875 238.0004 0001466  77.9234 282.2182 15.49226385  4480
STARLINK-37949          
1 69671U 26143Y   26194.25003472 -.00042650  00000+0 -78623-3 0  9997
2 69671  97.2845 238.2583 0000455  79.2612  98.5630 15.49210363  4557
STARLINK-37946          
1 69672U 26143Z   26194.25003472 -.00044999  00000+0 -82981-3 0  9998
2 69672  97.2847 238.2925 0001172  69.6235 185.8550 15.49211046  4551
TJS-26A                 
1 69674U 26144A   26193.29904564 -.00000341  00000+0  00000+0 0  9996
2 69674   6.9538 323.2302 0004208 347.4913 194.6526  1.00274367   198
CZ-7A R/B               
1 69675U 26144B   26193.75593152  .00647061 -12270-4  72994-3 0  9993
2 69675  19.4524 316.1834 7121003 194.6074 122.3454  2.56147611   500
