OBJECT_NAME,OBJECT_ID,EPOCH,MEAN_MOTION,ECCENTRICITY,INCLINATION,RA_OF_ASC_NODE,ARG_OF_PERICENTER,MEAN_ANOMALY,EPHEMERIS_TYPE,CLASSIFICATION_TYPE,NORAD_CAT_ID,ELEMENT_SET_NO,REV_AT_EPOCH,BSTAR,MEAN_MOTION_DOT,MEAN_MOTION_DDOT
KZ-11 R/B,2026-138H,2026-07-12T21:48:00.762624,15.43010363,.03770511,55.1520,167.7492,143.6026,219.1292,0,U,69628,999,389,.75497354E-3,.78015E-2,.9750105E-5
CENTISPACE-1 GROUP 05 OBJECT J,2026-138J,2026-07-12T23:32:48.502752,14.15842481,.00095056,55.1383,185.8680,340.3250,19.7356,0,U,69636,999,364,-.58940951E-4,-.27E-5,0
VICTUS HAZE PUMA,2026-142A,2026-07-13T06:30:49.506912,15.20839796,.00250298,97.4472,91.5972,273.0497,86.7874,0,U,69646,999,363,.97283749E-4,.2093E-4,0
HOKUSHIN-1,1998-067YH,2026-07-12T23:21:36.149184,15.50931223,.00061287,51.6302,172.2596,322.5692,37.4870,0,U,69648,999,365,.30625514E-3,.17654E-3,0
STARLINK-37656,2026-143A,2026-07-13T02:02:16.420992,15.49213961,.00010772,97.2854,237.9473,101.4008,258.7365,0,U,69649,999,455,.70683732E-3,.38574E-3,0
STARLINK-37646,2026-143B,2026-07-13T06:00:02.999808,15.49232337,.00017771,97.2847,238.2905,78.7252,172.4372,0,U,69650,999,464,-.85191449E-3,-.46224E-3,0
STARLINK-37749,2026-143C,2026-07-13T06:00:02.999808,15.49249173,.00006779,97.2848,238.2749,140.2368,72.6342,0,U,69651,999,464,-.48684383E-3,-.26534E-3,0
STARLINK-37819,2026-143D,2026-07-13T06:00:02.999808,15.49196158,.00011912,97.2844,238.2480,73.0240,75.4410,0,U,69652,999,464,-.52195155E-3,-.28383E-3,0
STARLINK-37729,2026-143E,2026-07-13T02:31:04.165248,15.83313120,.00017324,97.2835,238.3815,230.7304,129.3812,0,U,69653,999,458,.14186802E-2,.316076E-2,0
STARLINK-37838,2026-143F,2026-07-13T06:00:02.999808,15.49203584,.00014486,97.2843,238.3176,56.8573,256.6131,0,U,69654,999,464,-.56312878E-3,-.30614E-3,0
STARLINK-37884,2026-143G,2026-07-13T02:27:43.972992,15.49226026,.00011583,97.2860,238.0768,79.8230,280.3151,0,U,69655,999,456,.47517804E-3,.25871E-3,0
STARLINK-37876,2026-143H,2026-07-13T06:00:02.999808,15.49212215,.00013778,97.2843,238.3158,84.4183,226.6364,0,U,69656,999,455,-.84719672E-3,-.45937E-3,0
STARLINK-37784,2026-143J,2026-07-13T06:00:02.999808,15.49209421,.0001193,97.2843,238.2440,82.0224,61.4844,0,U,69657,999,455,-.75693114E-3,-.41073E-3,0
STARLINK-37851,2026-143K,2026-07-13T06:00:02.999808,15.49206510,.00011051,97.2843,238.3102,87.4069,211.6575,0,U,69658,999,454,-.76000259E-3,-.41234E-3,0
STARLINK-37229,2026-143L,2026-07-13T06:00:02.999808,15.49200647,.0001201,97.2847,238.2650,90.9716,99.4298,0,U,69659,999,459,-.53145045E-3,-.289E-3,0
STARLINK-37556,2026-143M,2026-07-13T06:00:02.999808,15.49212614,.00011651,97.2847,238.2911,84.6624,169.6702,0,U,69660,999,459,-.84817466E-3,-.45989E-3,0
STARLINK-37867,2026-143N,2026-07-13T06:00:02.999808,15.49204225,.00018842,97.2848,238.3128,86.1741,211.4066,0,U,69661,999,455,-.44878085E-3,-.24437E-3,0
STARLINK-37852,2026-143P,2026-07-13T06:00:02.999808,15.49210446,.0001236,97.2843,238.2345,93.9421,26.6445,0,U,69662,999,455,-.65342373E-3,-.35495E-3,0
STARLINK-37554,2026-143Q,2026-07-13T06:00:02.999808,15.49210043,.00007628,97.2847,238.2867,73.4858,171.3644,0,U,69663,999,459,-.82524061E-3,-.4475E-3,0
STARLINK-37830,2026-143R,2026-07-13T06:00:02.999808,15.49210284,.00014313,97.2845,238.2506,94.2164,66.3808,0,U,69664,999,454,-.75096258E-3,-.40753E-3,0
STARLINK-37837,2026-143S,2026-07-13T06:00:02.999808,15.46466832,.00020681,97.2845,238.3108,107.2283,193.0435,0,U,69665,999,455,-.71825441E-1,-.3126387E-1,0
STARLINK-37943,2026-143T,2026-07-13T06:00:02.999808,15.49209019,.00013934,97.2847,238.2532,89.7629,73.7981,0,U,69666,999,455,-.61921783E-3,-.33648E-3,0
STARLINK-37941,2026-143U,2026-07-13T06:00:02.999808,15.49209441,.00009787,97.2848,238.2817,68.8469,165.0927,0,U,69667,999,455,-.85244897E-3,-.46214E-3,0
STARLINK-37930,2026-143V,2026-07-13T06:00:02.999808,15.49200030,.00010648,97.2848,238.2847,77.0266,159.9164,0,U,69668,999,454,-.56879622E-3,-.30916E-3,0
STARLINK-37945,2026-143W,2026-07-13T06:00:02.999808,15.49211679,.00013254,97.2843,238.3138,79.7332,229.0893,0,U,69669,999,455,-.83860943E-3,-.45474E-3,0
STARLINK-37948,2026-143X,2026-07-13T01:10:13.785024,15.49226385,.00014663,97.2875,238.0004,77.9234,282.2182,0,U,69670,999,448,.85147252E-3,.46554E-3,0
STARLINK-37949,2026-143Y,2026-07-13T06:00:02.999808,15.49210363,.00004556,97.2845,238.2583,79.2612,98.5630,0,U,69671,999,455,-.78622889E-3,-.4265E-3,0
STARLINK-37946,2026-143Z,2026-07-13T06:00:02.999808,15.49211046,.0001172,97.2847,238.2925,69.6235,185.8550,0,U,69672,999,455,-.82980955E-3,-.44999E-3,0
TJS-26A,2026-144A,2026-07-12T07:10:37.543296,1.00274367,.0004208,6.9538,323.2302,347.4913,194.6526,0,U,69674,999,19,0,-.341E-5,0
CZ-7A R/B,2026-144B,2026-07-12T18:08:32.483328,2.56147611,.71210034,19.4524,316.1834,194.6074,122.3454,0,U,69675,999,50,.72994226E-3,.647061E-2,-.12270027E-4
